STARLINK-35610          
1 66428U 25259G   25343.00002315  .00023175  00000+0  56100-3 0  9999
2 66428  43.0011  69.4768 0001795 276.7843 214.5870 15.40665514  5678
STARLINK-35533          
1 66429U 25259H   25343.00002315  .00036667  00000+0  88135-3 0  9993
2 66429  43.0011  69.4455 0001470 268.9007 234.8628 15.40681837  5679
STARLINK-35470          
1 66430U 25259J   25343.00002315 -.00320700  00000+0 -79557-2 0  9998
2 66430  43.0011  69.4164 0001602 268.3173 247.8902 15.40854116  5674
STARLINK-35439          
1 66431U 25259K   25343.00002315  .00024993  00000+0  60333-3 0  9995
2 66431  43.0010  69.3844 0001300 280.5393 248.0114 15.40713926  5674
STARLINK-35446          
1 66432U 25259L   25343.00002315  .00027203  00000+0  65656-3 0  9996
2 66432  43.0006  69.3533 0001106 269.2328 271.8630 15.40680819  5672
STARLINK-35457          
1 66433U 25259M   25343.00002315  .00017764  00000+0  43170-3 0  9995
2 66433  43.0006  69.3239 0001334 261.6194 291.9071 15.40686684  5674
STARLINK-35389          
1 66434U 25259N   25343.00002315  .00024668  00000+0  59650-3 0  9997
2 66434  43.0007  69.2932 0001042 276.3396 289.6670 15.40667946  5677
STARLINK-35502          
1 66435U 25259P   25343.00002315  .00034009  00000+0  81430-3 0  9999
2 66435  43.0006  69.2660 0001026 253.1577 325.2636 15.40829307  5671
STARLINK-35501          
1 66436U 25259Q   25343.00002315 -.02240744  00000+0 -55649-1 0  9990
2 66436  43.0005  69.2069 0001449 272.2303 329.3492 15.42874192  5671
STARLINK-35474          
1 66437U 25259R   25343.00002315 -.02062592  00000+0 -49561-1 0  9990
2 66437  43.0004  69.1838 0000993 285.9818 325.1410 15.44125226  5672
STARLINK-34681          
1 66438U 25259S   25342.95148703  .00145528  00000+0  23827-2 0  9991
2 66438  43.0001  69.4198 0013410 340.5271  19.5076 15.51161578  5479
STARLINK-35327          
1 66439U 25259T   25343.00002315 -.00518463  00000+0 -13131-1 0  9997
2 66439  43.0006  69.2353 0001125 288.4073 302.3393 15.41012561  5679
