CCSDS_OMM_VERS = 2.0
CREATION_DATE  = 
ORIGINATOR     = 

OBJECT_NAME    = STARLINK-35610
OBJECT_ID      = 2025-259G
CENTER_NAME    = EARTH
REF_FRAME      = TEME
TIME_SYSTEM    = UTC
MEAN_ELEMENT_THEORY = SGP/SGP4

EPOCH          = 2025-12-09T00:00:02.000160
MEAN_MOTION    = 15.40665514
ECCENTRICITY   = .0001795
INCLINATION    = 43.0011
RA_OF_ASC_NODE = 69.4768
ARG_OF_PERICENTER = 276.7843
MEAN_ANOMALY   = 214.5870

EPHEMERIS_TYPE = 0
CLASSIFICATION_TYPE = U
NORAD_CAT_ID   = 66428
ELEMENT_SET_NO = 999
REV_AT_EPOCH   = 567
BSTAR          = .56100017E-3
MEAN_MOTION_DOT = .23175E-3
MEAN_MOTION_DDOT = 0

CCSDS_OMM_VERS = 2.0
CREATION_DATE  = 
ORIGINATOR     = 

OBJECT_NAME    = STARLINK-35533
OBJECT_ID      = 2025-259H
CENTER_NAME    = EARTH
REF_FRAME      = TEME
TIME_SYSTEM    = UTC
MEAN_ELEMENT_THEORY = SGP/SGP4

EPOCH          = 2025-12-09T00:00:02.000160
MEAN_MOTION    = 15.40681837
ECCENTRICITY   = .00014709
INCLINATION    = 43.0011
RA_OF_ASC_NODE = 69.4455
ARG_OF_PERICENTER = 268.9007
MEAN_ANOMALY   = 234.8628

EPHEMERIS_TYPE = 0
CLASSIFICATION_TYPE = U
NORAD_CAT_ID   = 66429
ELEMENT_SET_NO = 999
REV_AT_EPOCH   = 567
BSTAR          = .88134831E-3
MEAN_MOTION_DOT = .36667E-3
MEAN_MOTION_DDOT = 0

CCSDS_OMM_VERS = 2.0
CREATION_DATE  = 
ORIGINATOR     = 

OBJECT_NAME    = STARLINK-35470
OBJECT_ID      = 2025-259J
CENTER_NAME    = EARTH
REF_FRAME      = TEME
TIME_SYSTEM    = UTC
MEAN_ELEMENT_THEORY = SGP/SGP4

EPOCH          = 2025-12-09T00:00:02.000160
MEAN_MOTION    = 15.40854116
ECCENTRICITY   = .00016021
INCLINATION    = 43.0011
RA_OF_ASC_NODE = 69.4164
ARG_OF_PERICENTER = 268.3173
MEAN_ANOMALY   = 247.8902

EPHEMERIS_TYPE = 0
CLASSIFICATION_TYPE = U
NORAD_CAT_ID   = 66430
ELEMENT_SET_NO = 999
REV_AT_EPOCH   = 567
BSTAR          = -.79556761E-2
MEAN_MOTION_DOT = -.3207E-2
MEAN_MOTION_DDOT = 0

CCSDS_OMM_VERS = 2.0
CREATION_DATE  = 
ORIGINATOR     = 

OBJECT_NAME    = STARLINK-35439
OBJECT_ID      = 2025-259K
CENTER_NAME    = EARTH
REF_FRAME      = TEME
TIME_SYSTEM    = UTC
MEAN_ELEMENT_THEORY = SGP/SGP4

EPOCH          = 2025-12-09T00:00:02.000160
MEAN_MOTION    = 15.40713926
ECCENTRICITY   = .00013009
INCLINATION    = 43.0010
RA_OF_ASC_NODE = 69.3844
ARG_OF_PERICENTER = 280.5393
MEAN_ANOMALY   = 248.0114

EPHEMERIS_TYPE = 0
CLASSIFICATION_TYPE = U
NORAD_CAT_ID   = 66431
ELEMENT_SET_NO = 999
REV_AT_EPOCH   = 567
BSTAR          = .60332788E-3
MEAN_MOTION_DOT = .24993E-3
MEAN_MOTION_DDOT = 0

CCSDS_OMM_VERS = 2.0
CREATION_DATE  = 
ORIGINATOR     = 

OBJECT_NAME    = STARLINK-35446
OBJECT_ID      = 2025-259L
CENTER_NAME    = EARTH
REF_FRAME      = TEME
TIME_SYSTEM    = UTC
MEAN_ELEMENT_THEORY = SGP/SGP4

EPOCH          = 2025-12-09T00:00:02.000160
MEAN_MOTION    = 15.40680819
ECCENTRICITY   = .00011062
INCLINATION    = 43.0006
RA_OF_ASC_NODE = 69.3533
ARG_OF_PERICENTER = 269.2328
MEAN_ANOMALY   = 271.8630

EPHEMERIS_TYPE = 0
CLASSIFICATION_TYPE = U
NORAD_CAT_ID   = 66432
ELEMENT_SET_NO = 999
REV_AT_EPOCH   = 567
BSTAR          = .65655863E-3
MEAN_MOTION_DOT = .27203E-3
MEAN_MOTION_DDOT = 0

CCSDS_OMM_VERS = 2.0
CREATION_DATE  = 
ORIGINATOR     = 

OBJECT_NAME    = STARLINK-35457
OBJECT_ID      = 2025-259M
CENTER_NAME    = EARTH
REF_FRAME      = TEME
TIME_SYSTEM    = UTC
MEAN_ELEMENT_THEORY = SGP/SGP4

EPOCH          = 2025-12-09T00:00:02.000160
MEAN_MOTION    = 15.40686684
ECCENTRICITY   = .00013345
INCLINATION    = 43.0006
RA_OF_ASC_NODE = 69.3239
ARG_OF_PERICENTER = 261.6194
MEAN_ANOMALY   = 291.9071

EPHEMERIS_TYPE = 0
CLASSIFICATION_TYPE = U
NORAD_CAT_ID   = 66433
ELEMENT_SET_NO = 999
REV_AT_EPOCH   = 567
BSTAR          = .4317036E-3
MEAN_MOTION_DOT = .17764E-3
MEAN_MOTION_DDOT = 0

CCSDS_OMM_VERS = 2.0
CREATION_DATE  = 
ORIGINATOR     = 

OBJECT_NAME    = STARLINK-35389
OBJECT_ID      = 2025-259N
CENTER_NAME    = EARTH
REF_FRAME      = TEME
TIME_SYSTEM    = UTC
MEAN_ELEMENT_THEORY = SGP/SGP4

EPOCH          = 2025-12-09T00:00:02.000160
MEAN_MOTION    = 15.40667946
ECCENTRICITY   = .00010429
INCLINATION    = 43.0007
RA_OF_ASC_NODE = 69.2932
ARG_OF_PERICENTER = 276.3396
MEAN_ANOMALY   = 289.6670

EPHEMERIS_TYPE = 0
CLASSIFICATION_TYPE = U
NORAD_CAT_ID   = 66434
ELEMENT_SET_NO = 999
REV_AT_EPOCH   = 567
BSTAR          = .59650241E-3
MEAN_MOTION_DOT = .24668E-3
MEAN_MOTION_DDOT = 0

CCSDS_OMM_VERS = 2.0
CREATION_DATE  = 
ORIGINATOR     = 

OBJECT_NAME    = STARLINK-35502
OBJECT_ID      = 2025-259P
CENTER_NAME    = EARTH
REF_FRAME      = TEME
TIME_SYSTEM    = UTC
MEAN_ELEMENT_THEORY = SGP/SGP4

EPOCH          = 2025-12-09T00:00:02.000160
MEAN_MOTION    = 15.40829307
ECCENTRICITY   = .00010262
INCLINATION    = 43.0006
RA_OF_ASC_NODE = 69.2660
ARG_OF_PERICENTER = 253.1577
MEAN_ANOMALY   = 325.2636

EPHEMERIS_TYPE = 0
CLASSIFICATION_TYPE = U
NORAD_CAT_ID   = 66435
ELEMENT_SET_NO = 999
REV_AT_EPOCH   = 567
BSTAR          = .81429507E-3
MEAN_MOTION_DOT = .34009E-3
MEAN_MOTION_DDOT = 0

CCSDS_OMM_VERS = 2.0
CREATION_DATE  = 
ORIGINATOR     = 

OBJECT_NAME    = STARLINK-35501
OBJECT_ID      = 2025-259Q
CENTER_NAME    = EARTH
REF_FRAME      = TEME
TIME_SYSTEM    = UTC
MEAN_ELEMENT_THEORY = SGP/SGP4

EPOCH          = 2025-12-09T00:00:02.000160
MEAN_MOTION    = 15.42874192
ECCENTRICITY   = .00014497
INCLINATION    = 43.0005
RA_OF_ASC_NODE = 69.2069
ARG_OF_PERICENTER = 272.2303
MEAN_ANOMALY   = 329.3492

EPHEMERIS_TYPE = 0
CLASSIFICATION_TYPE = U
NORAD_CAT_ID   = 66436
ELEMENT_SET_NO = 999
REV_AT_EPOCH   = 567
BSTAR          = -.55649289E-1
MEAN_MOTION_DOT = -.2240744E-1
MEAN_MOTION_DDOT = 0

CCSDS_OMM_VERS = 2.0
CREATION_DATE  = 
ORIGINATOR     = 

OBJECT_NAME    = STARLINK-35474
OBJECT_ID      = 2025-259R
CENTER_NAME    = EARTH
REF_FRAME      = TEME
TIME_SYSTEM    = UTC
MEAN_ELEMENT_THEORY = SGP/SGP4

EPOCH          = 2025-12-09T00:00:02.000160
MEAN_MOTION    = 15.44125226
ECCENTRICITY   = .00009936
INCLINATION    = 43.0004
RA_OF_ASC_NODE = 69.1838
ARG_OF_PERICENTER = 285.9818
MEAN_ANOMALY   = 325.1410

EPHEMERIS_TYPE = 0
CLASSIFICATION_TYPE = U
NORAD_CAT_ID   = 66437
ELEMENT_SET_NO = 999
REV_AT_EPOCH   = 567
BSTAR          = -.49561095E-1
MEAN_MOTION_DOT = -.2062592E-1
MEAN_MOTION_DDOT = 0

CCSDS_OMM_VERS = 2.0
CREATION_DATE  = 
ORIGINATOR     = 

OBJECT_NAME    = STARLINK-34681
OBJECT_ID      = 2025-259S
CENTER_NAME    = EARTH
REF_FRAME      = TEME
TIME_SYSTEM    = UTC
MEAN_ELEMENT_THEORY = SGP/SGP4

EPOCH          = 2025-12-08T22:50:08.479392
MEAN_MOTION    = 15.51161578
ECCENTRICITY   = .00134103
INCLINATION    = 43.0001
RA_OF_ASC_NODE = 69.4198
ARG_OF_PERICENTER = 340.5271
MEAN_ANOMALY   = 19.5076

EPHEMERIS_TYPE = 0
CLASSIFICATION_TYPE = U
NORAD_CAT_ID   = 66438
ELEMENT_SET_NO = 999
REV_AT_EPOCH   = 547
BSTAR          = .2382747E-2
MEAN_MOTION_DOT = .145528E-2
MEAN_MOTION_DDOT = 0

CCSDS_OMM_VERS = 2.0
CREATION_DATE  = 
ORIGINATOR     = 

OBJECT_NAME    = STARLINK-35327
OBJECT_ID      = 2025-259T
CENTER_NAME    = EARTH
REF_FRAME      = TEME
TIME_SYSTEM    = UTC
MEAN_ELEMENT_THEORY = SGP/SGP4

EPOCH          = 2025-12-09T00:00:02.000160
MEAN_MOTION    = 15.41012561
ECCENTRICITY   = .00011256
INCLINATION    = 43.0006
RA_OF_ASC_NODE = 69.2353
ARG_OF_PERICENTER = 288.4073
MEAN_ANOMALY   = 302.3393

EPHEMERIS_TYPE = 0
CLASSIFICATION_TYPE = U
NORAD_CAT_ID   = 66439
ELEMENT_SET_NO = 999
REV_AT_EPOCH   = 567
BSTAR          = -.13131074E-1
MEAN_MOTION_DOT = -.518463E-2
MEAN_MOTION_DDOT = 0

